NORAD_CAT_ID,OBJECT_NAME,OBJECT_TYPE,EPOCH,MEAN_MOTION,ECCENTRICITY,INCLINATION,RA_OF_ASC_NODE,ARG_OF_PERICENTER,MEAN_ANOMALY,BSTAR,MEAN_MOTION_DOT,MEAN_MOTION_DDOT,TLE_LINE0,TLE_LINE1,TLE_LINE2,SEMIMAJOR_AXIS,PERIOD,APOGEE,PERIGEE,DECAYED
52275.0,STARLINK-3784,PAYLOAD,2024-05-15 11:41:10,15.08932611,0.0001199,53.2173,206.3578,91.2642,268.8487,0.0021135,0.00033594,0.0,0 STARLINK-3784,1 52275U 22041Q   24136.48692429  .00033594  00000-0  21135-2 0  9998,2 52275  53.2173 206.3578 0001199  91.2642 268.8487 15.08932611115454,6917.597,95.432,540.292,538.633,0.0
52275.0,STARLINK-3784,PAYLOAD,2024-05-15 21:13:26,15.08960329,0.0001127,53.2164,204.571,75.943,284.1687,0.0022632,0.00036034,0.0,0 STARLINK-3784,1 52275U 22041Q   24136.88433641  .00036034  00000-0  22632-2 0  9996,2 52275  53.2164 204.5710 0001127  75.9430 284.1687 15.08960329114300,6917.513,95.43,540.157,538.598,0.0
52275.0,STARLINK-3784,PAYLOAD,2024-05-16 13:07:17,15.08874126,0.0001177,53.2164,201.597,111.0042,249.1076,0.0032117,0.00051246,0.0,0 STARLINK-3784,1 52275U 22041Q   24137.54673246  .00051246  00000-0  32117-2 0  9998,2 52275  53.2164 201.5970 0001177 111.0042 249.1076 15.08874126115618,6917.776,95.435,540.455,538.827,0.0
52275.0,STARLINK-3784,PAYLOAD,2024-05-16 21:04:12,15.08894044,8.29e-05,53.2155,200.107,62.4214,297.6862,0.002335,0.00037125,0.0,0 STARLINK-3784,1 52275U 22041Q   24137.87792363  .00037125  00000-0  23350-2 0  9995,2 52275  53.2155 200.1070 0000829  62.4214 297.6862 15.08894044114450,6917.715,95.434,540.154,539.007,0.0
52275.0,STARLINK-3784,PAYLOAD,2024-05-17 12:58:05,15.0881498,0.0001335,53.2168,197.1377,89.8724,270.2421,0.0014332,0.00022579,0.0,0 STARLINK-3784,1 52275U 22041Q   24138.54034246  .00022579  00000-0  14332-2 0  9996,2 52275  53.2168 197.1377 0001335  89.8724 270.2421 15.08814980115765,6917.957,95.439,540.745,538.898,0.0
52275.0,STARLINK-3784,PAYLOAD,2024-05-18 11:13:29,15.0884532,0.000138,53.2164,192.9707,82.2247,277.8902,0.00078432,0.00012218,0.0,0 STARLINK-3784,1 52275U 22041Q   24139.46770309  .00012218  00000-0  78432-3 0  9996,2 52275  53.2164 192.9707 0001380  82.2247 277.8902 15.08845320114698,6917.864,95.437,540.684,538.774,0.0
52275.0,STARLINK-3784,PAYLOAD,2024-05-18 20:45:48,15.08849961,0.0001353,53.2161,191.187,88.8602,271.2545,0.00058438,9.027e-05,0.0,0 STARLINK-3784,1 52275U 22041Q   24139.86514090  .00009027  00000-0  58438-3 0  9991,2 52275  53.2161 191.1870 0001353  88.8602 271.2545 15.08849961115961,6917.85,95.437,540.651,538.779,0.0
52275.0,STARLINK-3784,PAYLOAD,2024-05-19 03:07:21,15.08828946,0.0001218,53.2164,189.9989,95.5381,264.5751,-0.00022013,-3.788e-05,0.0,0 STARLINK-3784,1 52275U 22041Q   24140.13010537 -.00003788  00000-0 -22013-3 0  9990,2 52275  53.2164 189.9989 0001218  95.5381 264.5751 15.08828946116009,6917.914,95.438,540.622,538.937,0.0
52275.0,STARLINK-3784,PAYLOAD,2024-05-19 12:39:40,15.08833817,0.0001446,53.2158,188.2162,89.3556,270.7602,0.0018375,0.00029072,0.0,0 STARLINK-3784,1 52275U 22041Q   24140.52755140  .00029072  00000-0  18375-2 0  9996,2 52275  53.2158 188.2162 0001446  89.3556 270.7602 15.08833817114853,6917.899,95.438,540.765,538.764,0.0
52275.0,STARLINK-3784,PAYLOAD,2024-05-20 12:30:26,15.08868611,0.0001497,53.2158,183.7556,87.9316,272.1847,0.0012538,0.00019738,0.0,0 STARLINK-3784,1 52275U 22041Q   24141.52114422  .00019738  00000-0  12538-2 0  9992,2 52275  53.2158 183.7556 0001497  87.9316 272.1847 15.08868611116213,6917.793,95.436,540.694,538.622,0.0
52275.0,STARLINK-3784,PAYLOAD,2024-05-21 02:48:54,15.08858631,0.0001288,53.2157,181.0787,83.4086,276.7053,0.00096887,0.00015173,0.0,0 STARLINK-3784,1 52275U 22041Q   24142.11730177  .00015173  00000-0  96887-3 0  9998,2 52275  53.2157 181.0787 0001288  83.4086 276.7053 15.08858631116302,6917.823,95.436,540.579,538.797,0.0
52275.0,STARLINK-3784,PAYLOAD,2024-05-21 09:10:27,15.08850931,0.0001207,53.2156,179.89,96.5701,263.5429,0.00020054,2.906e-05,0.0,0 STARLINK-3784,1 52275U 22041Q   24142.38226122  .00002906  00000-0  20054-3 0  9990,2 52275  53.2156 179.8900 0001207  96.5701 263.5429 15.08850931116343,6917.847,95.437,540.547,538.877,0.0
52275.0,STARLINK-3784,PAYLOAD,2024-05-22 02:39:41,15.08843501,0.0001208,53.2156,176.6134,90.8242,269.2889,9.0968e-05,1.16e-05,0.0,0 STARLINK-3784,1 52275U 22041Q   24143.11090121  .00001160  00000-0  90968-4 0  9993,2 52275  53.2156 176.6134 0001208  90.8242 269.2889 15.08843501116455,6917.87,95.437,540.57,538.899,0.0
52275.0,STARLINK-3784,PAYLOAD,2024-05-22 09:01:14,15.08849298,0.0001403,53.2156,175.423,106.3957,253.7189,7.0305e-05,8.31e-06,0.0,0 STARLINK-3784,1 52275U 22041Q   24143.37585707  .00000831  00000-0  70305-4 0  9997,2 52275  53.2156 175.4230 0001403 106.3957 253.7189 15.08849298115282,6917.852,95.437,540.688,538.746,0.0
52275.0,STARLINK-3784,PAYLOAD,2024-05-23 08:52:01,15.0883292,0.0001369,53.217,170.9665,103.495,256.6195,7.4361e-05,8.96e-06,0.0,0 STARLINK-3784,1 52275U 22041Q   24144.36946659  .00000896  00000-0  74361-4 0  9991,2 52275  53.2170 170.9665 0001369 103.4950 256.6195 15.08832920116646,6917.902,95.438,540.714,538.82,0.0
52275.0,STARLINK-3784,PAYLOAD,2024-05-24 02:21:16,15.08841013,0.0001305,53.2167,167.6941,96.4669,263.6472,4.5655e-05,4.39e-06,0.0,0 STARLINK-3784,1 52275U 22041Q   24145.09810311  .00000439  00000-0  45655-4 0  9994,2 52275  53.2167 167.6941 0001305  96.4669 263.6472 15.08841013116751,6917.877,95.437,540.645,538.84,0.0
52275.0,STARLINK-3784,PAYLOAD,2024-05-24 07:07:25,15.08841183,0.0001296,53.2165,166.8029,94.0478,266.0662,3.9747e-05,3.45e-06,0.0,0 STARLINK-3784,1 52275U 22041Q   24145.29682267  .00000345  00000-0  39747-4 0  9994,2 52275  53.2165 166.8029 0001296  94.0478 266.0662 15.08841183115573,6917.877,95.437,540.638,538.845,0.0
52275.0,STARLINK-3784,PAYLOAD,2024-05-24 18:15:06,15.08841438,0.0001131,53.2171,164.7282,151.1169,208.9886,5.4875e-05,5.86e-06,0.0,0 STARLINK-3784,1 52275U 22041Q   24145.76049760  .00000586  00000-0  54875-4 0  9997,2 52275  53.2171 164.7282 0001131 151.1169 208.9886 15.08841438115642,6917.876,95.437,540.523,538.959,0.0
52275.0,STARLINK-3784,PAYLOAD,2024-05-25 05:22:48,15.08863837,0.0001435,53.2167,162.6414,105.1461,254.969,-0.0002791,-4.73e-05,0.0,0 STARLINK-3784,1 52275U 22041Q   24146.22417729 -.00004730  00000-0 -27910-3 0  9999,2 52275  53.2167 162.6414 0001435 105.1461 254.9690 15.08863837116925,6917.808,95.436,540.665,538.68,0.0
52275.0,STARLINK-3784,PAYLOAD,2024-05-25 10:08:59,15.08833043,0.0001261,53.2165,161.7481,85.4845,274.6291,7.3777e-05,8.86e-06,0.0,0 STARLINK-3784,1 52275U 22041Q   24146.42290835  .00000886  00000-0  73777-4 0  9997,2 52275  53.2165 161.7481 0001261  85.4845 274.6291 15.08833043116955,6917.902,95.438,540.639,538.894,0.0
52275.0,STARLINK-3784,PAYLOAD,2024-05-26 09:59:45,15.088533,0.0001854,53.2171,157.2899,104.6969,255.4229,-8.2162e-05,-1.596e-05,0.0,0 STARLINK-3784,1 52275U 22041Q   24147.41649980 -.00001596  00000-0 -82162-4 0  9995,2 52275  53.2171 157.2899 0001854 104.6969 255.4229 15.08853300117108,6917.84,95.437,540.987,538.422,0.0
52275.0,STARLINK-3784,PAYLOAD,2024-05-26 17:56:41,15.08843881,0.0001312,53.2172,155.8027,97.3502,262.7639,9.2086e-05,1.178e-05,0.0,0 STARLINK-3784,1 52275U 22041Q   24147.74770155  .00001178  00000-0  92086-4 0  9990,2 52275  53.2172 155.8027 0001312  97.3502 262.7639 15.08843881117150,6917.869,95.437,540.641,538.826,0.0
52275.0,STARLINK-3784,PAYLOAD,2024-05-27 05:04:23,15.08834255,0.0001266,53.2175,153.7209,88.0866,272.0271,0.00018584,2.671e-05,0.0,0 STARLINK-3784,1 52275U 22041Q   24148.21138560  .00002671  00000-0  18584-3 0  9990,2 52275  53.2175 153.7209 0001266  88.0866 272.0271 15.08834255117229,6917.898,95.438,540.639,538.887,0.0
52275.0,STARLINK-3784,PAYLOAD,2024-05-27 09:50:32,15.08840643,0.0001326,53.2168,152.8294,84.5646,275.5497,0.0001192,1.61e-05,0.0,0 STARLINK-3784,1 52275U 22041Q   24148.41010334  .00001610  00000-0  11920-3 0  9999,2 52275  53.2168 152.8294 0001326  84.5646 275.5497 15.08840643116044,6917.878,95.438,540.661,538.826,0.0
52275.0,STARLINK-3784,PAYLOAD,2024-05-27 17:47:28,15.08842132,0.0001427,53.2171,151.342,77.5531,282.562,9.6905e-05,1.255e-05,0.0,0 STARLINK-3784,1 52275U 22041Q   24148.74130264  .00001255  00000-0  96905-4 0  9992,2 52275  53.2171 151.3420 0001427  77.5531 282.5620 15.08842132116096,6917.874,95.437,540.726,538.752,0.0
52275.0,STARLINK-3784,PAYLOAD,2024-05-28 06:30:33,15.08842535,0.0001288,53.2165,148.9628,88.8741,271.2399,4.2483e-05,3.88e-06,0.0,0 STARLINK-3784,1 52275U 22041Q   24149.27122237  .00000388  00000-0  42483-4 0  9990,2 52275  53.2165 148.9628 0001288  88.8741 271.2399 15.08842535117382,6917.873,95.437,540.629,538.847,0.0
52275.0,STARLINK-3784,PAYLOAD,2024-05-29 04:45:57,15.08837111,0.0001293,53.2165,144.7992,91.8572,268.2568,4.437e-06,-2.17e-06,0.0,0 STARLINK-3784,1 52275U 22041Q   24150.19858558 -.00000217  00000-0  44370-5 0  9995,2 52275  53.2165 144.7992 0001293  91.8572 268.2568 15.08837111117526,6917.889,95.438,540.649,538.86,0.0
52275.0,STARLINK-3784,PAYLOAD,2024-05-30 06:12:07,15.08840001,0.0001297,53.2166,140.0414,89.1491,270.9649,5.1737e-05,5.36e-06,0.0,0 STARLINK-3784,1 52275U 22041Q   24151.25842404  .00000536  00000-0  51737-4 0  9993,2 52275  53.2166 140.0414 0001297  89.1491 270.9649 15.08840001117688,6917.88,95.438,540.643,538.848,0.0
52275.0,STARLINK-3784,PAYLOAD,2024-05-31 04:27:31,15.08838919,0.000132,53.2169,135.8775,92.0175,268.0968,7.8196e-05,9.57e-06,0.0,0 STARLINK-3784,1 52275U 22041Q   24152.18578516  .00000957  00000-0  78196-4 0  9991,2 52275  53.2169 135.8775 0001320  92.0175 268.0968 15.08838919116611,6917.884,95.438,540.662,538.836,0.0
52275.0,STARLINK-3784,PAYLOAD,2024-06-01 05:53:42,15.08839034,0.0001459,53.2181,131.1237,93.4626,266.6533,2.2726e-05,7.4e-07,0.0,0 STARLINK-3784,1 52275U 22041Q   24153.24562814  .00000074  00000-0  22726-4 0  9991,2 52275  53.2181 131.1237 0001459  93.4626 266.6533 15.08839034117988,6917.883,95.438,540.758,538.739,0.0
